OBJECT_NAME,OBJECT_ID,EPOCH,MEAN_MOTION,ECCENTRICITY,INCLINATION,RA_OF_ASC_NODE,ARG_OF_PERICENTER,MEAN_ANOMALY,EPHEMERIS_TYPE,CLASSIFICATION_TYPE,NORAD_CAT_ID,ELEMENT_SET_NO,REV_AT_EPOCH,BSTAR,MEAN_MOTION_DOT,MEAN_MOTION_DDOT
SAUDISAT 1C (SO-50),2002-058C,2026-07-22T11:44:12.681024,14.83108843,.00742978,64.5523,19.7554,255.9504,103.3336,0,U,27607,999,26969,.10552256E-3,.746E-5,0
SAUDISAT 2,2004-025F,2026-07-22T11:20:19.986720,14.56701025,.00245337,98.5525,204.3692,185.5038,174.5894,0,U,28371,999,17088,.50667567E-4,.177E-5,0
SAUDISAT 3,2007-012B,2026-07-21T19:17:11.070240,14.71442858,.00158826,98.1470,153.2305,115.1779,245.1077,0,U,31118,999,3283,.37680351E-4,.183E-5,0
PISAT,2016-059B,2026-07-22T10:15:09.800928,14.69039095,.00305851,97.8195,202.3689,92.8219,267.6488,0,U,41784,999,52491,.14023159E-3,.781E-5,0
FLYING LAPTOP,2017-042G,2026-07-22T15:28:30.483264,15.01345106,.00192451,97.4845,357.8522,8.7660,351.3897,0,U,42831,999,49177,.21046163E-3,.2663E-4,0
SALSAT,2020-068K,2026-07-22T11:04:14.814912,15.30243913,.00099778,97.8868,208.6876,167.8214,192.3268,0,U,46495,999,32075,.24997179E-3,.7239E-4,0
